LEMUR-2-ARIANNA         
1 62699U 25009CU  26163.16275633  .00008555  00000+0  64989-3 0  9990
2 62699  97.6896 244.5859 0003651 130.6437 229.5106 15.02412369 76804
LEMUR-2-ALISIA          
1 62706U 25009DB  26163.20820756  .00008103  00000+0  61123-3 0  9992
2 62706  97.6968 245.4119 0001411 190.1719 169.9478 15.02701559 99411
LEMUR-2-ROUNDTRIPPER    
1 62711U 25009DG  26163.16966387  .00009313  00000+0  68317-3 0  9990
2 62711  97.7255 245.8557 0004813 146.9647 213.1880 15.03708826 76874
LEMUR-2-MYNAMEISJEFF    
1 62712U 25009DH  26163.23464559  .00008995  00000+0  65985-3 0  9996
2 62712  97.7304 246.2986 0003017 170.0646 190.0640 15.03722784 76880
LEMUR-2-LEIA-PHILIP     
1 63246U 25052AN  26163.19126771  .00001864  00000+0  16574-3 0  9991
2 63246  97.6848  55.2262 0002120 227.8555 132.2487 14.97307331 67925
LEMUR-2-LIA-MARTIN      
1 63248U 25052AQ  26163.26470739  .00004735  00000+0  40830-3 0  9999
2 63248  97.6920  55.7660 0002648 163.9417 196.1890 14.97768695 67940
LEMUR-2-DELOITTE-1      
1 63259U 25052BB  26163.24043112  .00004208  00000+0  36533-3 0  9990
2 63259  97.6925  56.0710 0002957 107.3351 252.8195 14.97565459 67951
LEMUR-2-EMERSONROSE     
1 63261U 25052BD  26163.22047977  .00003787  00000+0  31696-3 0  9990
2 63261  97.6902  56.6011 0002058  66.8508 293.2932 14.99047589 67997
LEMUR-2-MARACHE-FRAN    
1 63262U 25052BE  26163.19916908  .00005963  00000+0  48332-3 0  9999
2 63262  97.6956  56.8851 0005874  39.7308 320.4345 15.00052141 68015
LEMUR-2-THEFALCONER     
1 63264U 25052BG  26163.26611931  .00003565  00000+0  31186-3 0  9992
2 63264  97.6885  55.7223 0003254  49.4414 310.7091 14.97361642 67951
LEMUR-2-UNTITLED-SC     
1 63351U 25061A   26163.19614329  .00003679  00000+0  20892-3 0  9993
2 63351  97.5629 138.5944 0016995 283.8087  76.1253 15.13438435 66832
LEMUR-2-ESPERANZA       
1 63352U 25061B   26163.23969770  .00003343  00000+0  18976-3 0  9990
2 63352  97.5638 138.7298 0016552 282.9904  76.9478 15.13531738 66842
LEMUR-2-KREMPEL-BRO2    
1 63353U 25061C   26163.20200595  .00004043  00000+0  22586-3 0  9991
2 63353  97.5684 139.2194 0017462 274.6769  85.2468 15.13968163 66852
LEMUR-2-THERMORAPTOR    
1 63354U 25061D   26163.18433197  .00003687  00000+0  20589-3 0  9999
2 63354  97.5687 139.2765 0017108 273.6173  86.3102 15.14046988 66855
LEMUR-2-NEUROSPICY      
1 63355U 25061E   26162.89204694  .00003623  00000+0  20191-3 0  9994
2 63355  97.5613 138.6160 0015037 278.8373  81.1155 15.14157004 66814
LEMUR-2-TILLINFINITY    
1 63356U 25061F   26163.19359130  .00003648  00000+0  19982-3 0  9998
2 63356  97.5601 139.2029 0016206 264.3376  95.6008 15.14747333 66889
LEMUR-2-KREMPEL-BRO1    
1 63357U 25061G   26163.16642138  .00003767  00000+0  20729-3 0  9992
2 63357  97.5600 139.0932 0016862 265.7935  94.1369 15.14551892 66870
LEMUR-2-LANGER2SPACE    
1 63358U 25061H   26163.19192470  .00003705  00000+0  20583-3 0  9995
2 63358  97.5606 138.9346 0014858 275.8583  84.0955 15.14249964 66860
LEMUR-2-BALTO           
1 63395U 25052BH  26163.25050213  .00006014  00000+0  48762-3 0  9996
2 63395  97.6895  56.9176 0006834  70.3203 289.8758 15.00033875 68027
LEMUR-2-KRISH           
1 64561U 25135AK  26163.25913030  .00005376  00000+0  48234-3 0  9993
2 64561  97.7731 278.1696 0001553 106.0323 254.1070 14.96160198 53187
LEMUR-2-HUBBLE-4        
1 64565U 25135AP  26163.31150783  .00001336  00000+0  13332-3 0  9995
2 64565  97.7694 277.2769 0001271 338.8073  21.3093 14.93183646 53149
LEMUR-2-SEJONG-2        
1 64586U 25135BL  26163.29073127  .00003796  00000+0  33776-3 0  9997
2 64586  97.7686 278.3457 0004243   1.9020 358.2217 14.96662823 53211
LEMUR-2-HUBBLE-5        
1 64840U 25135BT  26163.26864238  .00001860  00000+0  17930-3 0  9992
2 64840  97.7713 277.8603 0005472  11.2483 348.8859 14.94122549 53170
LEMUR-2-KARENDARRELL    
1 64841U 25135BU  26163.24872908  .00008232  00000+0  66515-3 0  9997
2 64841  97.7672 279.4656 0009338 221.2050 138.8469 15.00040949 53275
LEMUR-2-LUCILLE-ROSE    
1 65403U 25135BV  26163.28931125  .00007264  00000+0  58661-3 0  9990
2 65403  97.7769 279.5197 0010855 301.7945  58.2221 15.00094537 47907
LEMUR-2-AFFIE-WAUWIE    
1 66295U 25248C   26163.21478737  .00014686  00000+0  55383-3 0  9997
2 66295  45.3875 141.9244 0008073  50.7965 309.3639 15.26994231 33839
LEMUR-2-DEANANDMAEVE    
1 66678U 25276N   26163.17882902  .00006619  00000+0  31322-3 0  9995
2 66678  97.4217 236.7375 0006206  31.3271 328.8333 15.19672951 29657
LEMUR-2-STAS-GORBUK     
1 66686U 25276W   26163.19218760  .00005664  00000+0  27123-3 0  9994
2 66686  97.4254 236.8059 0005625  32.1471 328.0105 15.19329474 29650
LEMUR-2-TEODOR          
1 66768U 25276DG  26163.18143976  .00005690  00000+0  25972-3 0  9999
2 66768  97.4156 237.0255 0002018 120.8116 239.3319 15.20996831 29680
