OBJECT_NAME,OBJECT_ID,EPOCH,MEAN_MOTION,ECCENTRICITY,INCLINATION,RA_OF_ASC_NODE,ARG_OF_PERICENTER,MEAN_ANOMALY,EPHEMERIS_TYPE,CLASSIFICATION_TYPE,NORAD_CAT_ID,ELEMENT_SET_NO,REV_AT_EPOCH,BSTAR,MEAN_MOTION_DOT,MEAN_MOTION_DDOT
LEMUR-2-ARIANNA,2025-009CU,2026-06-12T03:54:22.146912,15.02412369,.00036514,97.6896,244.5859,130.6437,229.5106,0,U,62699,999,7680,.64988609E-3,.8555E-4,0
LEMUR-2-ALISIA,2025-009DB,2026-06-12T04:59:49.133184,15.02701559,.00014119,97.6968,245.4119,190.1719,169.9478,0,U,62706,999,9941,.61122981E-3,.8103E-4,0
LEMUR-2-ROUNDTRIPPER,2025-009DG,2026-06-12T04:04:18.958368,15.03708826,.00048138,97.7255,245.8557,146.9647,213.1880,0,U,62711,999,7687,.68317054E-3,.9313E-4,0
LEMUR-2-MYNAMEISJEFF,2025-009DH,2026-06-12T05:37:53.378976,15.03722784,.00030177,97.7304,246.2986,170.0646,190.0640,0,U,62712,999,7688,.65985332E-3,.8995E-4,0
LEMUR-2-LEIA-PHILIP,2025-052AN,2026-06-12T04:35:25.530144,14.97307331,.00021202,97.6848,55.2262,227.8555,132.2487,0,U,63246,999,6792,.16574008E-3,.1864E-4,0
LEMUR-2-LIA-MARTIN,2025-052AQ,2026-06-12T06:21:10.718496,14.97768695,.00026482,97.6920,55.7660,163.9417,196.1890,0,U,63248,999,6794,.40829537E-3,.4735E-4,0
LEMUR-2-DELOITTE-1,2025-052BB,2026-06-12T05:46:13.248768,14.97565459,.00029574,97.6925,56.0710,107.3351,252.8195,0,U,63259,999,6795,.36532912E-3,.4208E-4,0
LEMUR-2-EMERSONROSE,2025-052BD,2026-06-12T05:17:29.452128,14.99047589,.00020587,97.6902,56.6011,66.8508,293.2932,0,U,63261,999,6799,.31696153E-3,.3787E-4,0
LEMUR-2-MARACHE-FRAN,2025-052BE,2026-06-12T04:46:48.208512,15.00052141,.00058748,97.6956,56.8851,39.7308,320.4345,0,U,63262,999,6801,.48331946E-3,.5963E-4,0
LEMUR-2-THEFALCONER,2025-052BG,2026-06-12T06:23:12.708384,14.97361642,.00032542,97.6885,55.7223,49.4414,310.7091,0,U,63264,999,6795,.31186417E-3,.3565E-4,0
LEMUR-2-UNTITLED-SC,2025-061A,2026-06-12T04:42:26.780256,15.13438435,.00169959,97.5629,138.5944,283.8087,76.1253,0,U,63351,999,6683,.20892159E-3,.3679E-4,0
LEMUR-2-ESPERANZA,2025-061B,2026-06-12T05:45:09.881280,15.13531738,.00165527,97.5638,138.7298,282.9904,76.9478,0,U,63352,999,6684,.18975651E-3,.3343E-4,0
LEMUR-2-KREMPEL-BRO2,2025-061C,2026-06-12T04:50:53.314080,15.13968163,.0017462,97.5684,139.2194,274.6769,85.2468,0,U,63353,999,6685,.2258628E-3,.4043E-4,0
LEMUR-2-THERMORAPTOR,2025-061D,2026-06-12T04:25:26.282208,15.14046988,.00171082,97.5687,139.2765,273.6173,86.3102,0,U,63354,999,6685,.20589039E-3,.3687E-4,0
LEMUR-2-NEUROSPICY,2025-061E,2026-06-11T21:24:32.855616,15.14157004,.00150376,97.5613,138.6160,278.8373,81.1155,0,U,63355,999,6681,.20190746E-3,.3623E-4,0
LEMUR-2-TILLINFINITY,2025-061F,2026-06-12T04:38:46.288320,15.14747333,.00162069,97.5601,139.2029,264.3376,95.6008,0,U,63356,999,6688,.1998164E-3,.3648E-4,0
LEMUR-2-KREMPEL-BRO1,2025-061G,2026-06-12T03:59:38.807232,15.14551892,.00168627,97.5600,139.0932,265.7935,94.1369,0,U,63357,999,6687,.20729487E-3,.3767E-4,0
LEMUR-2-LANGER2SPACE,2025-061H,2026-06-12T04:36:22.294080,15.14249964,.00148581,97.5606,138.9346,275.8583,84.0955,0,U,63358,999,6686,.20582939E-3,.3705E-4,0
LEMUR-2-BALTO,2025-052BH,2026-06-12T06:00:43.384032,15.00033875,.0006834,97.6895,56.9176,70.3203,289.8758,0,U,63395,999,6802,.48761504E-3,.6014E-4,0
LEMUR-2-KRISH,2025-135AK,2026-06-12T06:13:08.857920,14.96160198,.00015532,97.7731,278.1696,106.0323,254.1070,0,U,64561,999,5318,.48234017E-3,.5376E-4,0
LEMUR-2-HUBBLE-4,2025-135AP,2026-06-12T07:28:34.276512,14.93183646,.00012715,97.7694,277.2769,338.8073,21.3093,0,U,64565,999,5314,.13331561E-3,.1336E-4,0
LEMUR-2-SEJONG-2,2025-135BL,2026-06-12T06:58:39.181728,14.96662823,.00042436,97.7686,278.3457,1.9020,358.2217,0,U,64586,999,5321,.3377639E-3,.3796E-4,0
LEMUR-2-HUBBLE-5,2025-135BT,2026-06-12T06:26:50.701632,14.94122549,.00054722,97.7713,277.8603,11.2483,348.8859,0,U,64840,999,5317,.1793023E-3,.186E-4,0
LEMUR-2-KARENDARRELL,2025-135BU,2026-06-12T05:58:10.192512,15.00040949,.00093387,97.7672,279.4656,221.2050,138.8469,0,U,64841,999,5327,.66515443E-3,.8232E-4,0
LEMUR-2-LUCILLE-ROSE,2025-135BV,2026-06-12T06:56:36.492000,15.00094537,.00108555,97.7769,279.5197,301.7945,58.2221,0,U,65403,999,4790,.5866083E-3,.7264E-4,0
LEMUR-2-AFFIE-WAUWIE,2025-248C,2026-06-12T05:09:17.628768,15.26994231,.00080738,45.3875,141.9244,50.7965,309.3639,0,U,66295,999,3383,.55382786E-3,.14686E-3,0
LEMUR-2-DEANANDMAEVE,2025-276N,2026-06-12T04:17:30.827328,15.19672951,.00062064,97.4217,236.7375,31.3271,328.8333,0,U,66678,999,2965,.31322451E-3,.6619E-4,0
LEMUR-2-STAS-GORBUK,2025-276W,2026-06-12T04:36:45.008640,15.19329474,.00056257,97.4254,236.8059,32.1471,328.0105,0,U,66686,999,2965,.27122811E-3,.5664E-4,0
LEMUR-2-TEODOR,2025-276DG,2026-06-12T04:21:16.395264,15.20996831,.0002018,97.4156,237.0255,120.8116,239.3319,0,U,66768,999,2968,.25972057E-3,.569E-4,0
